HELIOS 1B               
1 25977U 99064A   20141.41295676  .00000030  00000-0  10903-4 0  9996
2 25977  98.2776 295.3245 0002560  83.7268 276.4236 14.82477159102267
TERRA                   
1 25994U 99068A   20141.42796914  .00000021  00000-0  14656-4 0  9990
2 25994  98.2132 216.1012 0001334 106.2872 253.8474 14.57113719 86237
SL-16 R/B               
1 26070U 00006B   20140.68725918 -.00000307  00000-0 -13269-3 0  9990
2 26070  71.0030 233.6995 0016274 176.2602 183.8646 14.15463219 48520
TITAN 4B R/B            
1 26474U 00047B   20141.43772707  .00000083  00000-0  18195-4 0  9998
2 26474  67.9920 152.8074 0059871 231.5002 128.0763 14.95950836 75131
ENVISAT                 
1 27386U 02009A   20141.47160679  .00000003  00000-0  14264-4 0  9999
2 27386  98.1367 149.9922 0001301  87.2550  77.2471 14.37980991954591
IDEFIX & ARIANE 42P R/B 
1 27422U 02021B   20141.38348657 -.00000023  00000-0  72584-5 0  9991
2 27422  98.3491 103.6168 0011421 318.9998  41.0325 14.29287841939264
AQUA                    
1 27424U 02022A   20141.19914170  .00000062  00000-0  23856-4 0  9991
2 27424  98.2080  82.2382 0002819  78.2602  59.8857 14.57112302959807
CZ-4B R/B               
1 27432U 02024C   20140.89468884 -.00000017  00000-0  15223-4 0  9994
2 27432  99.0877 142.6038 0049466 256.6665 165.8266 14.14092953929618
MIDORI II (ADEOS-II)    
1 27597U 02056A   20141.42877497 -.00000004  00000-0  15680-4 0  9998
2 27597  98.5183  89.7220 0002200  79.6742 280.4687 14.27446049907814
H-2A R/B                
1 27601U 02056E   20140.87555455  .00000021  00000-0  22587-4 0  9991
2 27601  98.2286 178.1133 0072158   3.8886  47.9408 14.31949576910600
CZ-4B R/B               
1 28059U 03049C   20141.35687278 -.00000016  00000-0  78928-5 0  9991
2 28059  98.4872  57.5699 0049194 223.5754 136.1551 14.52599220878734
CZ-2C R/B               
1 28222U 04012C   20140.89518311  .00000167  00000-0  14013-4 0  9993
2 28222  97.6747 103.3645 0048359 126.6932 290.4771 15.10374181881725
SL-16 R/B               
1 28353U 04021B   20141.55126358  .00000063  00000-0  58093-4 0  9999
2 28353  71.0009 357.8465 0004921 352.7742   7.3308 14.14236091823201
CZ-4B R/B               
1 28415U 04035C   20140.88177809  .00000132  00000-0  12845-4 0  9997
2 28415  97.6159 182.7685 0053185  89.9040 270.8282 15.06850143859338
CZ-2C R/B               
1 28480U 04046B   20140.72105963  .00000012  00000-0  20334-4 0  9995
2 28480  98.0809 177.8896 0140883 310.5336 156.7439 14.25721373806340
ARIANE 5 R/B            
1 28499U 04049H   20141.24187813 -.00000008  00000-0  64184-5 0  9998
2 28499  98.0524 242.9279 0092245   5.3583  17.7077 14.80025805831962
CZ-2D R/B               
1 28738U 05024B   20141.05672426  .00000213  00000-0  16021-4 0  9999
2 28738  97.3843 164.5697 0010311 284.0952  75.9133 15.12024051817137
SUZAKU (ASTRO-EII)      
1 28773U 05025A   20141.19930133  .00000589  00000-0  24296-4 0  9995
2 28773  31.3810 200.3829 0004583 283.4635  76.5501 15.17542142819644
ALOS (DAICHI)           
1 28931U 06002A   20141.50557074  .00000100  00000-0  28222-4 0  9993
2 28931  97.8440 128.6089 0001371 109.6125 250.5219 14.62708478763611
H-2A R/B                
1 28932U 06002B   20141.20978821  .00000174  00000-0  22174-4 0  9999
2 28932  98.3207 129.6516 0089898  54.4661 316.6775 14.92210579777032
AKARI (ASTRO-F)         
1 28939U 06005A   20140.81681223  .00002967  00000-0  80438-4 0  9991
2 28939  98.2300 111.6359 0095159  64.8065 296.3006 15.34137025776501
RESURS-DK 1             
1 29228U 06021A   20141.45438367  .00000010  00000-0  80983-5 0  9994
2 29228  69.9355 259.2757 0003842 185.3516 174.7604 15.02538206768546
GENESIS 1               
1 29252U 06029A   20141.41360490  .00000212  00000-0  20345-4 0  9995
2 29252  64.5222  33.2935 0015081 178.9675 181.1482 15.18109514763923
CZ-4B R/B               
1 29507U 06046C   20141.15240051  .00000698  00000-0  58985-4 0  9997
2 29507  97.7585 163.0885 0047083 258.7474 100.8456 15.00628335741173
CZ-2C R/B               
1 31114U 07010B   20141.03584571 -.00000018  00000-0  10440-4 0  9992
2 31114  98.2650 355.8172 0059581 351.2252   8.7879 14.19319077678980
COSMO-SKYMED 1          
1 31598U 07023A   20141.52853966 -.00000201  00000-0 -18668-4 0  9998
2 31598  97.8907 325.1145 0001439  94.3089 265.8305 14.82154097700691
GENESIS 2               
1 31789U 07028A   20140.89015766  .00000341  00000-0  27076-4 0  9998
2 31789  64.5039  76.5306 0048616 245.9654 113.6377 15.17249701710849
COSMOS 2428             
1 31792U 07029A   20141.23602482 -.00000288  00000-0 -13029-3 0  9993
2 31792  70.9162 332.2307 0006627 102.6051 257.5811 14.12349242664888
SL-16 R/B               
1 31793U 07029B   20141.47249245 -.00000112  00000-0 -33675-4 0  9990
2 31793  70.9762 305.1366 0002694 279.1781  94.1416 14.14433885665773
KORONAS-FOTON           
1 33504U 09003A   20141.31037883  .00000635  00000-0  31567-4 0  9998
2 33504  82.4431 250.8167 0019560  21.2132 338.9907 15.15632793623226
H-2A R/B                
1 38341U 12025E   20141.39975607  .00000139  00000-0  23965-4 0  9995
2 38341  98.4967 294.6056 0054713 323.1553  36.5905 14.84025720433289
CUSAT 2 & FALCON 9 R/B  
1 39271U 13055G   20141.40848243  .00002806  00000-0  68254-4 0  9992
2 39271  80.9652 297.1609 0588988 254.5350  99.0084 14.47688501346678
SL-4 R/B                
1 39679U 14021B   20140.78695337  .00000228  00000-0  29147-4 0  9996
2 39679  51.6164 240.4495 0171858 206.2732 152.9444 15.06401891335026
ALOS-2                  
1 39766U 14029A   20141.51112678  .00000118  00000-0  22734-4 0  9998
2 39766  97.9204 238.5053 0001592  93.0513 267.0890 14.79472469323562
SL-27 R/B               
1 40354U 14084B   20141.20437630  .00000617  00000-0  16330-4 0  9997
2 40354  74.7381  86.5363 0039041 288.8736  70.8244 15.40188644304180
YAOGAN 29               
1 41038U 15069A   20141.52485532  .00000014  00000-0  87174-5 0  9996
2 41038  98.0094 129.5465 0001547  46.5050 313.6292 14.80447148242147
ASTRO-H (HITOMI)        
1 41337U 16012A   20140.55913642  .00000166  00000-0  64801-5 0  9997
2 41337  31.0044 192.9623 0012317 145.8120 214.3309 14.98680486233160
SHENZHOU-11 MODULE      
1 41868U 16061G   20140.76934904  .00036336  88258-5  92058-4 0  9995
2 41868  42.7881 318.8879 0014510 298.9243 137.6224 15.95637570201489
HXMT (HUIYAN)           
1 42758U 17034A   20141.53494330 -.00000007  00000-0  13267-4 0  9991
2 42758  43.0181 189.1502 0011018 219.7051 284.8801 15.08822656161650
CZ-2C R/B               
1 43521U 18054D   20141.26387274  .00000289  00000-0  17669-4 0  9992
2 43521  35.1552 353.6854 0083543 229.4106 129.9314 15.10993702104886
AEOLUS                  
1 43600U 18066A   20141.29540545  .00025632  00000-0  99945-4 0  9994
2 43600  96.7184 148.1163 0005580  75.9623 284.2270 15.87037648100908
SAOCOM 1A               
1 43641U 18076A   20141.53673444  .00000005  00000-0  71381-5 0  9994
2 43641  97.8899 328.0526 0001440  84.6076 275.5312 14.82155650 87463
CREW DRAGON DEMO-1 DEB  
1 44064U 19011B   20141.04619847  .00008632  00000-0  93946-4 0  9991
2 44064  51.6354  96.3258 0002391 320.8055  39.2857 15.64345092 68462
